satname,norad_id,inclination_deg,eccentricity,mean_motion_rev_per_day,perigee_km,apogee_km,l1,l2
STARLINK-1446,45663,53.0252,0.0005922,15.4011297,441.73447919692717,449.8167212806502,1 45663U 20035G   26009.03315395  .00018012  00000+0  45168-3 0  9998,2 45663  53.0252 282.1535 0005922  89.0628 271.1054 15.40112970310475
STARLINK-1448,45665,53.0553,0.000223,15.09928792,534.8754417490836,537.9593330058551,1 45665U 20035J   26010.00002315  .01907012  00000+0  10504+0 0  9994,2 45665  53.0553 330.0652 0002230  74.4920  62.0933 15.09928792  5708
STARLINK-1451,45668,53.0556,0.0002397,15.06995083,543.7287454263569,547.0478834621017,1 45668U 20035M   26009.18255622  .00023983  00000+0  15976-2 0  9991,2 45668  53.0556 334.0566 0002397  88.9956 271.1308 15.06995083309761
STARLINK-1452,45669,53.0375,0.0003614,15.35311596,457.52382454620147,462.46642644651,1 45669U 20035N   26009.10112480  .00047179  00000+0  13585-2 0  9995,2 45669  53.0375 303.4544 0003614 133.5741 226.5561 15.35311596310185
STARLINK-1453,45670,53.0536,0.0006416,15.39991405,441.75625688285527,450.5131623406296,1 45670U 20035P   26009.03960073  .00051260  00000+0  12665-2 0  9992,2 45670  53.0536 297.8517 0006416 106.6712 253.4996 15.39991405310148
STARLINK-1454,45671,53.0571,0.0001541,15.06413316,546.1035566930086,548.2379365405168,1 45671U 20035Q   26009.60459799  .00004534  00000+0  32294-3 0  9997,2 45671  53.0571 331.8633 0001541  79.5471 280.5691 15.06413316309819
STARLINK-1456,45673,53.0548,0.0006409,15.38457666,446.2929347130539,455.04609890630127,1 45673U 20035S   26010.00002315  .00038975  00000+0  10166-2 0  9992,2 45673  53.0548 325.4482 0006409  87.4809  38.8369 15.38457666  5794
STARLINK-1457,45674,53.0517,0.0014369,15.5506843,392.21140674565504,411.6960314542048,1 45674U 20035T   26009.54486493  .00128786  00000+0  18513-2 0  9997,2 45674  53.0517 314.3018 0014369  73.2895 286.9691 15.55068430310042
STARLINK-1458,45675,53.0558,0.0001411,15.06394913,546.2499800230789,548.2043177859005,1 45675U 20035U   26009.21756652 -.00002553  00000+0 -15258-3 0  9998,2 45675  53.0558 333.5994 0001411  76.7343 283.3803 15.06394913309738
STARLINK-1460,45676,53.0549,0.0001432,15.06402701,546.2115710465987,548.1949885027252,1 45676U 20035V   26009.58615854  .00000390  00000+0  45054-4 0  9990,2 45676  53.0549 331.9433 0001432  89.6849 270.4304 15.06402701309789
STARLINK-1392,45677,53.0544,0.0001543,15.06402463,546.1354290905783,548.2725893260204,1 45677U 20035W   26009.19914020  .00007727  00000+0  53702-3 0  9994,2 45677  53.0544 333.6836 0001543  99.6232 260.4931 15.06402463309769
STARLINK-1394,45679,53.0549,0.0004938,15.39070732,445.4847914070033,452.22712965482424,1 45679U 20035Y   26009.56552665  .00068647  00000+0  17412-2 0  9995,2 45679  53.0549 317.5185 0004938  91.5263 268.6306 15.39070732310023
STARLINK-1402,45685,53.0537,0.0009784,15.35493638,452.76474737260924,466.1445467075373,1 45685U 20035AE  26009.53397201  .00050936  00000+0  14548-2 0  9991,2 45685  53.0537 303.0134 0009784  66.4913 293.7116 15.35493638310239
STARLINK-1404,45686,53.0545,0.0001518,15.06406484,546.1404205889685,548.2429503778822,1 45686U 20035AF  26009.55391410  .00005819  00000+0  40912-3 0  9995,2 45686  53.0545 322.0917 0001518  88.3238 271.7925 15.06406484309962
STARLINK-1413,45689,53.0539,0.0001352,15.06421044,546.2107634548329,548.0833602651592,1 45689U 20035AJ  26009.57234803  .00005875  00000+0  41272-3 0  9994,2 45689  53.0539 322.0061 0001352  86.9826 273.1318 15.06421044309872
STARLINK-1417,45693,53.0538,0.0006676,15.09321954,533.6532466684484,542.8880341499234,1 45693U 20035AN  26009.58823263  .00027835  00000+0  17363-2 0  9997,2 45693  53.0538 321.4432 0006676  68.3910 291.7791 15.09321954309966
STARLINK-1420,45695,53.0547,0.0001094,15.06405847,546.4360066115896,547.9512689551366,1 45695U 20035AQ  26009.50320285  .00013782  00000+0  94219-3 0  9999,2 45695  53.0547 302.3084 0001094  78.4478 281.6633 15.06405847310235
STARLINK-1422,45696,53.0547,0.0001411,15.06403072,546.2249773636904,548.1793080697644,1 45696U 20035AR  26009.18163607  .00001489  00000+0  11880-3 0  9991,2 45696  53.0547 323.7618 0001411  87.4925 272.6226 15.06403072309892
STARLINK-1351,45697,53.0553,0.0001899,15.1373086,523.5233780172684,526.1451264988764,1 45697U 20035AS  26010.00002315  .01208748  00000+0  60704-1 0  9998,2 45697  53.0553 299.5799 0001899 109.1438  46.0633 15.13730860  5840
STARLINK-1398,45699,53.0439,0.0006764,15.67614732,361.1677316292762,370.29083393662404,1 45699U 20035AU  26010.00002315  .00040479  00000+0  36713-3 0  9999,2 45699  53.0439 233.6746 0006764 120.5278 250.7562 15.67614732  5945
STARLINK-1400,45700,53.0544,0.0001644,15.06403441,546.0624862198092,548.3395373580852,1 45700U 20035AV  26009.52996101  .00006942  00000+0  48445-3 0  9994,2 45700  53.0544 302.1947 0001644  89.1450 270.9727 15.06403441310238
STARLINK-1403,45701,53.0535,0.0001348,15.06406719,546.2574310378159,548.1244994572471,1 45701U 20035AW  26009.09501158  .00008762  00000+0  60629-3 0  9991,2 45701  53.0535 304.1499 0001348  96.0883 264.0260 15.06406719310160
STARLINK-1407,45703,53.0378,0.000444,15.48807379,417.1952986753804,423.2322341559584,1 45703U 20035AY  26009.35371646  .00100753  00000+0  18275-2 0  9991,2 45703  53.0378 242.4691 0004440 261.8871  98.1633 15.48807379311063
STARLINK-1411,45706,53.0482,0.0002616,15.52217574,408.47703518820435,412.02872077236407,1 45706U 20035BB  26009.43554448  .00067741  00000+0  10961-2 0  9999,2 45706  53.0482 268.6670 0002616 143.6494 216.4693 15.52217574310696
STARLINK-1423,45710,53.054,0.0002379,15.11058945,531.3251108032728,534.6134151631995,1 45710U 20035BF  26010.00002315  .00049364  00000+0  29147-2 0  9997,2 45710  53.0540 300.0561 0002379  51.1740  56.2506 15.11058945  5794
STARLINK-1433,45711,53.0547,0.0002204,15.10741173,532.4149372363199,535.4617800544102,1 45711U 20035BG  26010.00002315  .01883561  00000+0  10160+0 0  9996,2 45711  53.0547 300.0570 0002204  89.3521 117.8001 15.10741173  5716
STARLINK-1434,45712,53.0507,0.0003599,15.20342623,502.3291590576264,507.2835016668214,1 45712U 20035BH  26009.06590410  .00018167  00000+0  83725-3 0  9991,2 45712  53.0507 294.8282 0003599  50.2348 309.8964 15.20342623310308
STARLINK-1465,45731,53.0536,2.52e-05,15.11011465,532.9398755951943,533.2882026475654,1 45731U 20038B   26010.00002315  .00045991  00000+0  27216-2 0  9990,2 45731  53.0536 140.0554 0000252  22.1346   3.4757 15.11011465  5758
STARLINK-1471,45735,53.0496,0.000234,15.44491581,431.27859434172024,434.46614672712985,1 45735U 20038F   26009.45589783  .00022511  00000+0  48570-3 0  9990,2 45735  53.0496  64.8464 0002340  60.4554 299.6684 15.44491581308364
STARLINK-1474,45738,53.0329,0.0005538,15.8408112,315.20450341845935,322.62215636384826,1 45738U 20038J   26010.00002315  .00166284  00000+0  71365-3 0  9991,2 45738  53.0329   3.1445 0005538  85.9389   9.5167 15.84081120  6005
STARLINK-1480,45741,53.0532,0.0003285,15.38117901,449.4315265590185,453.91871312175226,1 45741U 20038M   26010.00002315  .00053985  00000+0  14176-2 0  9994,2 45741  53.0532 135.9890 0003285 355.8788  55.5510 15.38117901  5741
STARLINK-1500,45744,53.0381,0.0002969,15.31436318,469.492465342003,473.55979530878994,1 45744U 20038Q   26009.54840029  .00024492  00000+0  80488-3 0  9997,2 45744  53.0381 109.4441 0002969  63.1762 296.9541 15.31436318307742
STARLINK-1504,45746,53.0258,0.000276,15.48778836,418.42092445556955,422.17366018493067,1 45746U 20038S   26009.47126780  .00051700  00000+0  94876-3 0  9990,2 45746  53.0258  66.9744 0002760  26.9163 333.1987 15.48778836308326
STARLINK-1506,45747,53.0793,0.0003868,15.23962655,491.2440432809108,496.56025276582113,1 45747U 20038T   26009.55242092  .00009475  00000+0  39977-3 0  9998,2 45747  53.0793 115.4786 0003868  77.1556 282.9873 15.23962655307669
STARLINK-1464,45751,53.0541,0.0001254,15.0985146,535.7863717059572,537.5206011599539,1 45751U 20038X   26010.00002315  .01029876  00000+0  58344-1 0  9992,2 45751  53.0541 120.0564 0001254  93.3946  20.9608 15.09851460  5791
STARLINK-1477,45754,53.0513,0.0002899,15.1086393,531.5602495050007,535.5676537167446,1 45754U 20038AA  26009.62550310  .00036727  00000+0  21885-2 0  9997,2 45754  53.0513 120.6541 0002899 184.1556 175.9411 15.10863930307599
STARLINK-1478,45755,53.0555,0.0001049,15.31718667,469.96590907546306,471.4027917947842,1 45755U 20038AB  26010.00002315  .01792237  00000+0  51842-1 0  9990,2 45755  53.0555 118.7834 0001049  61.7934 169.2412 15.31718667  5552
STARLINK-1484,45756,53.0109,0.0004673,15.76121082,338.30284376341206,344.58296314117706,1 45756U 20038AC  26009.68164375  .00114380  00000+0  71182-3 0  9995,2 45756  53.0109 355.8203 0004673  73.3192 286.8339 15.76121082309338
STARLINK-1493,45759,53.0549,0.0001536,15.06413579,546.1062134255626,548.2336677177063,1 45759U 20038AF  26009.60552036  .00010125  00000+0  69740-3 0  9994,2 45759  53.0549 121.8562 0001536  96.8514 263.2650 15.06413579307567
STARLINK-1494,45760,53.0518,9.14e-05,15.59942182,387.20585000847495,388.4426677265956,1 45760U 20038AG  26010.00002315  .00389269  00000+0  45198-2 0  9990,2 45760  53.0518  81.0072 0000914  82.5695 325.9196 15.59942182  5885
STARLINK-1502,45764,53.0541,0.000128,15.06399198,546.3275710238177,548.1004608839012,1 45764U 20038AL  26009.57234241 -.00001224  00000+0 -63295-4 0  9993,2 45764  53.0541 122.0077 0001280  95.8123 264.3012 15.06399198307575
STARLINK-1470,45772,53.0461,0.0002178,15.23239648,494.5793184970562,497.57372590732666,1 45772U 20038AU  26009.50912355  .00011180  00000+0  47923-3 0  9993,2 45772  53.0461  87.9073 0002178 140.8616 219.2538 15.23239648308042
STARLINK-1482,45773,53.0559,0.0001395,15.06397111,546.2543249623177,548.1864996803542,1 45773U 20038AV  26009.53733054  .00000368  00000+0  43588-4 0  9994,2 45773  53.0559 102.1629 0001395  97.0939 263.0209 15.06397111307849
